{
  "norad_id": 60042,
  "name": "STARLINK-11120 [DTC]",
  "history": [
    {
      "epoch": "2026-03-28T15:00:12.481344Z",
      "apogee_km": 360.58321181710016,
      "perigee_km": 358.87179423333146,
      "latitude_deg": -3.22189002862413e-06,
      "longitude_deg": 121.92858568409709,
      "height_km": 361.00080804001027,
      "semi_major_axis_km": 6737.8645030252155,
      "eccentricity": 0.000127,
      "inclination_deg": 53.1611,
      "raan_deg": 173.0235,
      "arg_perigee_deg": 114.8498,
      "mean_anomaly_deg": 245.2652,
      "mean_motion_rev_day": 15.69709737
    }
  ]
}